start=new Date('2022-01-21T00:00:00.000Z').valueOf();
sats=[{"ELEMENT_SET_NO":"999","OBJECT_ID":"2020-006BL","MEAN_MOTION_DDOT":"0.0000000000000","MEAN_ANOMALY":"278.7415","REF_FRAME":"TEME","EPHEMERIS_TYPE":"0","OBJECT_NAME":"STARLINK-1195","APOAPSIS":"548.731","DECAY_DATE":null,"EPOCH":"2022-01-20T14:27:05.492160","NORAD_CAT_ID":"45102","ECCENTRICITY":"0.00021940","INCLINATION":"53.0548","SITE":"AFETR","PERIAPSIS":"545.692","CLASSIFICATION_TYPE":"U","TLE_LINE2":"2 45102  53.0548 181.1896 0002194  81.3823 278.7415 15.06400597109566","MEAN_ELEMENT_THEORY":"SGP4","TLE_LINE1":"1 45102U 20006BL  22020.60214690  .00001467  00000-0  11739-3 0  9996","MEAN_MOTION":"15.06400597","MEAN_MOTION_DOT":"0.00001467","BSTAR":"0.00011739000000","GP_ID":"194258789","CENTER_NAME":"EARTH","LAUNCH_DATE":"2020-01-29","RCS_SIZE":"LARGE","ARG_OF_PERICENTER":"81.3823","REV_AT_EPOCH":"10956","FILE":"3278533","OBJECT_TYPE":"PAYLOAD","RA_OF_ASC_NODE":"181.1896","COUNTRY_CODE":"US","SEMIMAJOR_AXIS":"6925.347","PERIOD":"95.592","TIME_SYSTEM":"UTC"},{"BSTAR":"0.00010636000000","GP_ID":"194258038","MEAN_MOTION_DOT":"0.00001303","TLE_LINE1":"1 45103U 20006BM  22020.23628784  .00001303  00000-0  10636-3 0  9993","MEAN_MOTION":"15.06402772","PERIAPSIS":"545.998","INCLINATION":"53.0535","SITE":"AFETR","TLE_LINE2":"2 45103  53.0535 182.8925 0001743  84.6660 275.4528 15.06402772109519","MEAN_ELEMENT_THEORY":"SGP4","CLASSIFICATION_TYPE":"U","TIME_SYSTEM":"UTC","PERIOD":"95.592","COUNTRY_CODE":"US","SEMIMAJOR_AXIS":"6925.340","FILE":"3278533","REV_AT_EPOCH":"10951","OBJECT_TYPE":"PAYLOAD","RA_OF_ASC_NODE":"182.8925","CENTER_NAME":"EARTH","RCS_SIZE":"LARGE","ARG_OF_PERICENTER":"84.6660","LAUNCH_DATE":"2020-01-29","EPHEMERIS_TYPE":"0","OBJECT_NAME":"STARLINK-1196","REF_FRAME":"TEME","MEAN_ANOMALY":"275.4528","ELEMENT_SET_NO":"999","MEAN_MOTION_DDOT":"0.0000000000000","OBJECT_ID":"2020-006BM","EPOCH":"2022-01-20T05:40:15.269376","DECAY_DATE":null,"ECCENTRICITY":"0.00017430","NORAD_CAT_ID":"45103","APOAPSIS":"548.412"},{"PERIOD":"95.592","TIME_SYSTEM":"UTC","COUNTRY_CODE":"US","SEMIMAJOR_AXIS":"6925.355","REV_AT_EPOCH":"10675","FILE":"3278654","RA_OF_ASC_NODE":"340.4879","OBJECT_TYPE":"PAYLOAD","CENTER_NAME":"EARTH","LAUNCH_DATE":"2020-02-17","RCS_SIZE":"LARGE","ARG_OF_PERICENTER":"73.4451","GP_ID":"194267304","BSTAR":"0.00000584730000","MEAN_MOTION_DOT":"-0.00000194","TLE_LINE1":"1 45178U 20012A   22020.75326830 -.00000194  00000-0  58473-5 0  9997","MEAN_MOTION":"15.06398007","SITE":"AFETR","INCLINATION":"53.0544","PERIAPSIS":"546.074","TLE_LINE2":"2 45178  53.0544 340.4879 0001655  73.4451 286.6720 15.06398007106753","MEAN_ELEMENT_THEORY":"SGP4","CLASSIFICATION_TYPE":"U","DECAY_DATE":null,"EPOCH":"2022-01-20T18:04:42.381120","NORAD_CAT_ID":"45178","ECCENTRICITY":"0.00016550","APOAPSIS":"548.366","EPHEMERIS_TYPE":"0","OBJECT_NAME":"STARLINK-1138","MEAN_ANOMALY":"286.6720","REF_FRAME":"TEME","ELEMENT_SET_NO":"999","OBJECT_ID":"2020-012A","MEAN_MOTION_DDOT":"0.0000000000000"},{"ECCENTRICITY":"0.00016370","NORAD_CAT_ID":"45179","EPOCH":"2022-01-20T14:58:56.332704","DECAY_DATE":null,"APOAPSIS":"548.370","OBJECT_NAME":"STARLINK-1143","EPHEMERIS_TYPE":"0","REF_FRAME":"TEME","MEAN_ANOMALY":"300.6136","MEAN_MOTION_DDOT":"0.0000000000000","OBJECT_ID":"2020-012B","ELEMENT_SET_NO":"999","TIME_SYSTEM":"UTC","PERIOD":"95.593","SEMIMAJOR_AXIS":"6925.371","COUNTRY_CODE":"US","OBJECT_TYPE":"PAYLOAD","RA_OF_ASC_NODE":"341.0795","FILE":"3278654","REV_AT_EPOCH":"10673","RCS_SIZE":"LARGE","ARG_OF_PERICENTER":"59.5014","LAUNCH_DATE":"2020-02-17","CENTER_NAME":"EARTH","GP_ID":"194267656","BSTAR":"-0.00006420800000","MEAN_MOTION_DOT":"-0.00001238","MEAN_MOTION":"15.06392727","TLE_LINE1":"1 45179U 20012B   22020.62426311 -.00001238  00000-0 -64208-4 0  9992","MEAN_ELEMENT_THEORY":"SGP4","TLE_LINE2":"2 45179  53.0541 341.0795 0001637  59.5014 300.6136 15.06392727106734","CLASSIFICATION_TYPE":"U","PERIAPSIS":"546.102","SITE":"AFETR","INCLINATION":"53.0541"},{"OBJECT_NAME":"STARLINK-1192","EPHEMERIS_TYPE":"0","OBJECT_ID":"2020-012C","MEAN_MOTION_DDOT":"0.0000000000000","ELEMENT_SET_NO":"999","MEAN_ANOMALY":"296.4813","REF_FRAME":"TEME","APOAPSIS":"548.277","NORAD_CAT_ID":"45180","ECCENTRICITY":"0.00015390","DECAY_DATE":null,"EPOCH":"2022-01-20T03:38:12.470208","MEAN_MOTION_DOT":"0.00006262","GP_ID":"194257545","BSTAR":"0.00043889000000","TLE_LINE2":"2 45180  53.0521 343.1976 0001539  63.6334 296.4813 15.06400665107310","CLASSIFICATION_TYPE":"U","MEAN_ELEMENT_THEORY":"SGP4","INCLINATION":"53.0521","SITE":"AFETR","PERIAPSIS":"546.146","MEAN_MOTION":"15.06400665","TLE_LINE1":"1 45180U 20012C   22020.15153322  .00006262  00000-0  43889-3 0  9992","SEMIMAJOR_AXIS":"6925.347","COUNTRY_CODE":"US","PERIOD":"95.592","TIME_SYSTEM":"UTC","LAUNCH_DATE":"2020-02-17","RCS_SIZE":"LARGE","ARG_OF_PERICENTER":"63.6334","CENTER_NAME":"EARTH","RA_OF_ASC_NODE":"343.1976","OBJECT_TYPE":"PAYLOAD","REV_AT_EPOCH":"10731","FILE":"3278533"},{"RA_OF_ASC_NODE":"342.6219","OBJECT_TYPE":"PAYLOAD","REV_AT_EPOCH":"10733","FILE":"3278533","LAUNCH_DATE":"2020-02-17","RCS_SIZE":"LARGE","ARG_OF_PERICENTER":"59.0977","CENTER_NAME":"EARTH","PERIOD":"95.591","TIME_SYSTEM":"UTC","SEMIMAJOR_AXIS":"6925.314","COUNTRY_CODE":"US","MEAN_MOTION":"15.06411278","TLE_LINE1":"1 45181U 20012D   22020.27779984  .00008993  00000-0  62168-3 0  9998","TLE_LINE2":"2 45181  53.0546 342.6219 0001572  59.0977 301.0167 15.06411278107330","CLASSIFICATION_TYPE":"U","MEAN_ELEMENT_THEORY":"SGP4","SITE":"AFETR","INCLINATION":"53.0546","PERIAPSIS":"546.090","GP_ID":"194257791","BSTAR":"0.00062168000000","MEAN_MOTION_DOT":"0.00008993","NORAD_CAT_ID":"45181","ECCENTRICITY":"0.00015720","DECAY_DATE":null,"EPOCH":"2022-01-20T06:40:01.906176","APOAPSIS":"548.268","MEAN_ANOMALY":"301.0167","REF_FRAME":"TEME","OBJECT_ID":"2020-012D","MEAN_MOTION_DDOT":"0.0000000000000","ELEMENT_SET_NO":"999","OBJECT_NAME":"STARLINK-1200","EPHEMERIS_TYPE":"0"},{"BSTAR":"0.00058753000000","GP_ID":"194258546","MEAN_MOTION_DOT":"0.00008482","MEAN_MOTION":"15.06407338","TLE_LINE1":"1 45182U 20012E   22020.56347079  .00008482  00000-0  58753-3 0  9995","CLASSIFICATION_TYPE":"U","TLE_LINE2":"2 45182  53.0553 321.3620 0001612  66.6168 293.4991 15.06407338107500","MEAN_ELEMENT_THEORY":"SGP4","PERIAPSIS":"546.075","INCLINATION":"53.0553","SITE":"AFETR","TIME_SYSTEM":"UTC","PERIOD":"95.592","SEMIMAJOR_AXIS":"6925.326","COUNTRY_CODE":"US","OBJECT_TYPE":"PAYLOAD","RA_OF_ASC_NODE":"321.3620","FILE":"3278533","REV_AT_EPOCH":"10750","ARG_OF_PERICENTER":"66.6168","RCS_SIZE":"LARGE","LAUNCH_DATE":"2020-02-17","CENTER_NAME":"EARTH","OBJECT_NAME":"STARLINK-1201","EPHEMERIS_TYPE":"0","REF_FRAME":"TEME","MEAN_ANOMALY":"293.4991","MEAN_MOTION_DDOT":"0.0000000000000","OBJECT_ID":"2020-012E","ELEMENT_SET_NO":"999","ECCENTRICITY":"0.00016120","NORAD_CAT_ID":"45182","EPOCH":"2022-01-20T13:31:23.876256","DECAY_DATE":null,"APOAPSIS":"548.307"},{"CENTER_NAME":"EARTH","LAUNCH_DATE":"2020-02-17","RCS_SIZE":"LARGE","ARG_OF_PERICENTER":"71.9591","REV_AT_EPOCH":"10738","FILE":"3278533","OBJECT_TYPE":"PAYLOAD","RA_OF_ASC_NODE":"341.2758","COUNTRY_CODE":"US","SEMIMAJOR_AXIS":"6925.338","PERIOD":"95.592","TIME_SYSTEM":"UTC","INCLINATION":"53.0554","SITE":"AFETR","PERIAPSIS":"545.955","CLASSIFICATION_TYPE":"U","TLE_LINE2":"2 45183  53.0554 341.2758 0001803  71.9591 288.1594 15.06403341107382","MEAN_ELEMENT_THEORY":"SGP4","TLE_LINE1":"1 45183U 20012F   22020.58004941  .00006177  00000-0  43319-3 0  9997","MEAN_MOTION":"15.06403341","MEAN_MOTION_DOT":"0.00006177","GP_ID":"194258797","BSTAR":"0.00043319000000","APOAPSIS":"548.452","DECAY_DATE":null,"EPOCH":"2022-01-20T13:55:16.269024","NORAD_CAT_ID":"45183","ECCENTRICITY":"0.00018030","ELEMENT_SET_NO":"999","OBJECT_ID":"2020-012F","MEAN_MOTION_DDOT":"0.0000000000000","MEAN_ANOMALY":"288.1594","REF_FRAME":"TEME","EPHEMERIS_TYPE":"0","OBJECT_NAME":"STARLINK-1202"},{"OBJECT_TYPE":"PAYLOAD","RA_OF_ASC_NODE":"323.3922","FILE":"3278589","REV_AT_EPOCH":"10691","RCS_SIZE":"LARGE","ARG_OF_PERICENTER":"60.0761","LAUNCH_DATE":"2020-02-17","CENTER_NAME":"EARTH","TIME_SYSTEM":"UTC","PERIOD":"95.593","SEMIMAJOR_AXIS":"6925.383","COUNTRY_CODE":"US","MEAN_MOTION":"15.06388840","TLE_LINE1":"1 45184U 20012G   22020.10640849  .00004074  00000-0  29233-3 0  9992","TLE_LINE2":"2 45184  53.0549 323.3922 0001626  60.0761 300.0389 15.06388840106912","CLASSIFICATION_TYPE":"U","MEAN_ELEMENT_THEORY":"SGP4","PERIAPSIS":"546.122","SITE":"AFETR","INCLINATION":"53.0549","GP_ID":"194266179","BSTAR":"0.00029233000000","MEAN_MOTION_DOT":"0.00004074","ECCENTRICITY":"0.00016260","NORAD_CAT_ID":"45184","EPOCH":"2022-01-20T02:33:13.693536","DECAY_DATE":null,"APOAPSIS":"548.374","REF_FRAME":"TEME","MEAN_ANOMALY":"300.0389","MEAN_MOTION_DDOT":"0.0000000000000","OBJECT_ID":"2020-012G","ELEMENT_SET_NO":"999","OBJECT_NAME":"STARLINK-1205","EPHEMERIS_TYPE":"0"},{"EPHEMERIS_TYPE":"0","OBJECT_NAME":"STARLINK-1216","ELEMENT_SET_NO":"999","MEAN_MOTION_DDOT":"0.0000000000000","OBJECT_ID":"2020-012H","REF_FRAME":"TEME","MEAN_ANOMALY":"294.3837","APOAPSIS":"548.362","EPOCH":"2022-01-20T07:22:28.004448","DECAY_DATE":null,"ECCENTRICITY":"0.00016540","NORAD_CAT_ID":"45185","MEAN_MOTION_DOT":"0.00001825","BSTAR":"0.00014140000000","GP_ID":"194258292","PERIAPSIS":"546.071","INCLINATION":"53.0562","SITE":"AFETR","TLE_LINE2":"2 45185  53.0562 342.4988 0001654  65.7324 294.3837 15.06399114107280","MEAN_ELEMENT_THEORY":"SGP4","CLASSIFICATION_TYPE":"U","TLE_LINE1":"1 45185U 20012H   22020.30726857  .00001825  00000-0  14140-3 0  9991","MEAN_MOTION":"15.06399114","COUNTRY_CODE":"US","SEMIMAJOR_AXIS":"6925.351","TIME_SYSTEM":"UTC","PERIOD":"95.592","CENTER_NAME":"EARTH","RCS_SIZE":"LARGE","ARG_OF_PERICENTER":"65.7324","LAUNCH_DATE":"2020-02-17","FILE":"3278533","REV_AT_EPOCH":"10728","RA_OF_ASC_NODE":"342.4988","OBJECT_TYPE":"PAYLOAD"}];
